[{"OBJECT_NAME":"OBJECT A","OBJECT_ID":"2025-013A","EPOCH":"2026-03-09T23:29:31.895232","MEAN_MOTION":15.29260221,"ECCENTRICITY":0.0010321,"INCLINATION":97.6364,"RA_OF_ASC_NODE":244.5149,"ARG_OF_PERICENTER":282.3775,"MEAN_ANOMALY":77.6309,"EPHEMERIS_TYPE":0,"CLASSIFICATION_TYPE":"U","NORAD_CAT_ID":62729,"ELEMENT_SET_NO":999,"REV_AT_EPOCH":6276,"BSTAR":0.0013206527,"MEAN_MOTION_DOT":0.00037616,"MEAN_MOTION_DDOT":0},{"OBJECT_NAME":"STARLINK-35790","OBJECT_ID":"2025-294AB","EPOCH":"2026-03-09T06:34:44.257440","MEAN_MOTION":15.27597489,"ECCENTRICITY":0.00010936,"INCLINATION":43.0018,"RA_OF_ASC_NODE":40.5866,"ARG_OF_PERICENTER":244.0498,"MEAN_ANOMALY":116.0241,"EPHEMERIS_TYPE":0,"CLASSIFICATION_TYPE":"U","NORAD_CAT_ID":67055,"ELEMENT_SET_NO":999,"REV_AT_EPOCH":1473,"BSTAR":0.00089206523,"MEAN_MOTION_DOT":0.0002438,"MEAN_MOTION_DDOT":0}]
